OBJECT_NAME,OBJECT_ID,EPOCH,MEAN_MOTION,ECCENTRICITY,INCLINATION,RA_OF_ASC_NODE,ARG_OF_PERICENTER,MEAN_ANOMALY,EPHEMERIS_TYPE,CLASSIFICATION_TYPE,NORAD_CAT_ID,ELEMENT_SET_NO,REV_AT_EPOCH,BSTAR,MEAN_MOTION_DOT,MEAN_MOTION_DDOT
OCEANSAT-2,2009-051A,2026-07-16T20:47:26.776896,13.99655945,.0017448,98.2321,181.7545,148.6927,211.5282,0,U,35931,999,88348,-.45168E-5,-.44E-6,0
WORLDVIEW-2 (WV-2),2009-055A,2026-07-16T19:22:37.314912,14.37907151,.0005376,98.4756,270.8537,125.9295,234.2391,0,U,35946,999,87990,.24629E-4,.31E-6,0
SMOS,2009-059A,2026-07-16T12:24:16.246080,14.39736468,.0001164,98.4429,24.4220,97.4594,262.6727,0,U,36036,999,87767,.49666E-4,.112E-5,0
YAOGAN-7,2009-069A,2026-07-16T16:09:19.698624,14.78036235,.0023417,98.0031,83.3529,306.3785,53.5265,0,U,36110,999,89398,.32901E-4,.185E-5,0
TANDEM-X,2010-030A,2026-07-07T11:29:58.986816,15.19154052,.0001887,97.4457,195.8973,94.3019,265.8431,0,U,36605,999,88972,.21566E-4,.386E-5,0
CARTOSAT-2B,2010-035A,2026-07-16T20:15:38.835936,14.78652425,.001274,97.9937,248.2014,94.9936,265.2729,0,U,36795,999,86423,.69439E-4,.457E-5,0
YAOGAN-10,2010-038A,2026-07-16T20:49:53.153184,14.85432784,.0001691,97.8966,221.0356,81.7122,41.5124,0,U,36834,999,86161,.9077E-4,.728E-5,0
COSMO-SKYMED 4,2010-060A,2026-07-16T19:27:36.306432,14.82151951,.0001522,97.8888,20.9818,86.9362,273.2025,0,U,37216,999,84895,.11917E-3,.896E-5,0
RESOURCESAT-2,2011-015A,2026-07-16T18:58:25.533120,14.21599740,.0011644,98.7631,265.0257,166.6155,193.5333,0,U,37387,999,79038,.31074E-4,.24E-6,0
HAIYANG-2A,2011-043A,2026-07-16T21:31:13.071648,13.73205144,.000212,99.3396,199.8909,26.2974,333.8281,0,U,37781,999,75073,-.19777E-4,-.62E-6,0
RASAT,2011-044D,2026-07-16T20:09:33.767424,14.68192957,.0021951,98.0586,288.7848,97.8032,49.4104,0,U,37791,999,79753,.18045E-4,.55E-6,0
SRMSAT,2011-058D,2026-07-16T12:02:44.649024,14.11581255,.0011714,19.9708,242.0370,165.5426,335.9764,0,U,37841,999,76196,.34086E-4,.328E-5,0
PLEIADES 1A,2011-076F,2026-07-16T20:16:11.955648,14.58547095,.0001654,98.1972,272.5472,78.4696,57.8063,0,U,38012,999,77631,.24553E-4,.68E-6,0
ZIYUAN 1-02C (ZY 1-02C),2011-079A,2026-07-16T20:45:40.826304,14.38236157,.0005677,98.4061,264.5515,209.2099,281.9779,0,U,38038,999,76347,.53447E-4,.119E-5,0
ARIRANG-3 (KOMPSAT-3),2012-025B,2026-07-16T20:50:10.528224,14.62229824,.0006126,98.1186,154.8191,34.3527,325.8070,0,U,38338,999,75568,.44807E-4,.179E-5,0
EXACTVIEW-1 (ADS-1B),2012-039C,2026-07-16T19:14:11.275296,14.24992457,.0011956,98.9807,315.8646,87.4053,272.8494,0,U,38709,999,72692,.33987E-4,.33E-6,0
SPOT 6,2012-047A,2026-07-16T20:00:59.379840,14.58538789,.0001116,98.2109,264.7936,86.9603,273.1724,0,U,38755,999,73737,.46094E-5,-.24E-6,0
PLEIADES 1B,2012-068A,2026-07-16T20:27:46.533024,14.58534179,.0001562,98.1943,272.4940,78.1517,281.9857,0,U,39019,999,72517,-.22478E-5,-.56E-6,0
GOKTURK 2,2012-073A,2026-07-16T20:24:36.487584,14.75570961,.0000977,97.6803,33.7936,97.5502,262.5819,0,U,39030,999,72888,.12059E-3,.775E-5,0
LANDSAT 8,2013-008A,2026-07-16T19:51:33.743232,14.57094808,.0001366,98.2289,267.6087,91.2406,268.8949,0,U,39084,999,70221,.3247E-4,.101E-5,0
SARAL,2013-009A,2026-07-16T20:35:49.445952,14.32896063,.0001795,98.5556,24.0503,162.4857,197.6389,0,U,39086,999,69985,.24515E-4,.23E-6,0
GAOFEN-1,2013-018A,2026-07-16T21:08:23.242848,14.76517866,.0017209,97.9088,269.3431,165.7696,194.4002,0,U,39150,999,71262,-.20486E-4,-.194E-5,0
VNREDSAT 1,2013-021B,2026-07-16T20:53:39.409728,14.64885055,.0001578,97.9063,250.1452,78.8800,281.2581,0,U,39160,999,70463,.70169E-4,.33E-5,0
ARIRANG-5 (KOMPSAT-5),2013-042A,2026-07-16T19:53:24.928800,15.04496381,.0005256,97.6202,24.1129,53.6310,306.5400,0,U,39227,999,70831,.31484E-4,.38E-5,0
SKYSAT-A,2013-066C,2026-07-16T14:53:44.960064,15.13119725,.0020608,97.3802,246.0799,208.2257,151.7859,0,U,39418,999,69293,.87583E-4,.1494E-4,0
DUBAISAT-2,2013-066D,2026-07-16T19:39:20.958912,15.10381137,.0009231,97.4577,187.1925,297.1625,62.8663,0,U,39419,999,69086,.97792E-4,.1544E-4,0
GPM-CORE,2014-009C,2026-07-16T19:02:59.514432,15.45054668,.0010921,64.9692,208.9287,262.5819,97.4080,0,U,39574,999,70238,.7525E-4,.3319E-4,0
SENTINEL-1A,2014-016A,2026-07-16T20:28:35.759424,14.59195737,.0001438,98.1769,204.9529,86.0799,274.0565,0,U,39634,999,65434,-.13751E-4,-.111E-5,0
KAZEOSAT 1,2014-024A,2026-07-16T20:34:42.712320,14.42037401,.000122,98.3200,269.5643,82.6052,277.5276,0,U,39731,999,64283,.12578E-4,-.1E-7,0
ALOS-2,2014-029A,2026-07-16T19:55:11.720928,14.79469553,.0001595,97.9234,294.5699,91.1105,269.0289,0,U,39766,999,65596,.11037E-3,.773E-5,0
KAZEOSAT 2,2014-033A,2026-07-16T19:13:17.721120,14.85502457,.0007481,97.5390,35.8465,213.2936,146.7810,0,U,40010,999,65335,.37164E-4,.271E-5,0
