OCEANSAT-2              
1 35931U 09051A   26197.86628214 -.00000044  00000+0 -45168-5 0  9996
2 35931  98.2321 181.7545 0017448 148.6927 211.5282 13.99655945883488
WORLDVIEW-2 (WV-2)      
1 35946U 09055A   26197.80737633  .00000031  00000+0  24629-4 0  9998
2 35946  98.4756 270.8537 0005376 125.9295 234.2391 14.37907151879909
SMOS                    
1 36036U 09059A   26197.51685470  .00000112  00000+0  49666-4 0  9990
2 36036  98.4429  24.4220 0001164  97.4594 262.6727 14.39736468877678
YAOGAN-7                
1 36110U 09069A   26197.67314466  .00000185  00000+0  32901-4 0  9999
2 36110  98.0031  83.3529 0023417 306.3785  53.5265 14.78036235893985
TANDEM-X                
1 36605U 10030A   26188.47915494  .00000386  00000+0  21566-4 0  9992
2 36605  97.4457 195.8973 0001887  94.3019 265.8431 15.19154052889726
CARTOSAT-2B             
1 36795U 10035A   26197.84419949  .00000457  00000+0  69439-4 0  9992
2 36795  97.9937 248.2014 0012740  94.9936 265.2729 14.78652425864231
YAOGAN-10               
1 36834U 10038A   26197.86797631  .00000728  00000+0  90770-4 0  9991
2 36834  97.8966 221.0356 0001691  81.7122  41.5124 14.85432784861613
COSMO-SKYMED 4          
1 37216U 10060A   26197.81083688  .00000896  00000+0  11917-3 0  9997
2 37216  97.8888  20.9818 0001522  86.9362 273.2025 14.82151951848953
RESOURCESAT-2           
1 37387U 11015A   26197.79057330  .00000024  00000+0  31074-4 0  9999
2 37387  98.7631 265.0257 0011644 166.6155 193.5333 14.21599740790383
HAIYANG-2A              
1 37781U 11043A   26197.89667907 -.00000062  00000+0 -19777-4 0  9996
2 37781  99.3396 199.8909 0002120  26.2974 333.8281 13.73205144750737
RASAT                   
1 37791U 11044D   26197.83997416  .00000055  00000+0  18045-4 0  9990
2 37791  98.0586 288.7848 0021951  97.8032  49.4104 14.68192957797532
SRMSAT                  
1 37841U 11058D   26197.50190566  .00000328  00000+0  34086-4 0  9992
2 37841  19.9708 242.0370 0011714 165.5426 335.9764 14.11581255761969
PLEIADES 1A             
1 38012U 11076F   26197.84458282  .00000068  00000+0  24553-4 0  9991
2 38012  98.1972 272.5472 0001654  78.4696  57.8063 14.58547095776318
ZIYUAN 1-02C (ZY 1-02C) 
1 38038U 11079A   26197.86505586  .00000119  00000+0  53447-4 0  9995
2 38038  98.4061 264.5515 0005677 209.2099 281.9779 14.38236157763476
ARIRANG-3 (KOMPSAT-3)   
1 38338U 12025B   26197.86817741  .00000179  00000+0  44807-4 0  9995
2 38338  98.1186 154.8191 0006126  34.3527 325.8070 14.62229824755684
EXACTVIEW-1 (ADS-1B)    
1 38709U 12039C   26197.80151939  .00000033  00000+0  33987-4 0  9992
2 38709  98.9807 315.8646 0011956  87.4053 272.8494 14.24992457726921
SPOT 6                  
1 38755U 12047A   26197.83402060 -.00000024  00000+0  46094-5 0  9994
2 38755  98.2109 264.7936 0001116  86.9603 273.1724 14.58538789737378
PLEIADES 1B             
1 39019U 12068A   26197.85262191 -.00000056  00000+0 -22478-5 0  9998
2 39019  98.1943 272.4940 0001562  78.1517 281.9857 14.58534179725178
GOKTURK 2               
1 39030U 12073A   26197.85042231  .00000775  00000+0  12059-3 0  9996
2 39030  97.6803  33.7936 0000977  97.5502 262.5819 14.75570961728883
LANDSAT 8               
1 39084U 13008A   26197.82747388  .00000101  00000+0  32470-4 0  9999
2 39084  98.2289 267.6087 0001366  91.2406 268.8949 14.57094808702212
SARAL                   
1 39086U 13009A   26197.85821118  .00000023  00000+0  24515-4 0  9993
2 39086  98.5556  24.0503 0001795 162.4857 197.6389 14.32896063699857
GAOFEN-1                
1 39150U 13018A   26197.88082457 -.00000194  00000+0 -20486-4 0  9997
2 39150  97.9088 269.3431 0017209 165.7696 194.4002 14.76517866712627
VNREDSAT 1              
1 39160U 13021B   26197.87059502  .00000330  00000+0  70169-4 0  9999
2 39160  97.9063 250.1452 0001578  78.8800 281.2581 14.64885055704639
ARIRANG-5 (KOMPSAT-5)   
1 39227U 13042A   26197.82876075  .00000380  00000+0  31484-4 0  9995
2 39227  97.6202  24.1129 0005256  53.6310 306.5400 15.04496381708314
SKYSAT-A                
1 39418U 13066C   26197.62065926  .00001494  00000+0  87583-4 0  9994
2 39418  97.3802 246.0799 0020608 208.2257 151.7859 15.13119725692935
DUBAISAT-2              
1 39419U 13066D   26197.81899258  .00001544  00000+0  97792-4 0  9998
2 39419  97.4577 187.1925 0009231 297.1625  62.8663 15.10381137690867
GPM-CORE                
1 39574U 14009C   26197.79374438  .00003319  00000+0  75250-4 0  9990
2 39574  64.9692 208.9287 0010921 262.5819  97.4080 15.45054668702380
SENTINEL-1A             
1 39634U 14016A   26197.85319166 -.00000111  00000+0 -13751-4 0  9996
2 39634  98.1769 204.9529 0001438  86.0799 274.0565 14.59195737654345
KAZEOSAT 1              
1 39731U 14024A   26197.85743880 -.00000001  00000+0  12578-4 0  9990
2 39731  98.3200 269.5643 0001220  82.6052 277.5276 14.42037401642835
ALOS-2                  
1 39766U 14029A   26197.82999677  .00000773  00000+0  11037-3 0  9990
2 39766  97.9234 294.5699 0001595  91.1105 269.0289 14.79469553655968
KAZEOSAT 2              
1 40010U 14033A   26197.80089955  .00000271  00000+0  37164-4 0  9999
2 40010  97.5390  35.8465 0007481 213.2936 146.7810 14.85502457653357
